API VERSION: 1.2
API SOURCE: NASA/JPL Horizons API



*******************************************************************************
Ephemeris / API_USER Wed Apr 15 12:08:23 2026 Pasadena, USA      / Horizons
*******************************************************************************
Target body name: Venus (299)                     {source: DE441}
Center body name: Sun (10)                        {source: DE441}
Center-site name: BODY CENTER
*******************************************************************************
Start time      : A.D. 2025-Mar-20 14:56:00.0000 TDB
Stop  time      : A.D. 2025-Mar-22 14:56:00.0000 TDB
Step-size       : 60 minutes
*******************************************************************************
Center geodetic : 0.0, 0.0, 0.0                   {E-lon(deg),Lat(deg),Alt(km)}
Center cylindric: 0.0, 0.0, 0.0                   {E-lon(deg),Dxy(km),Dz(km)}
Center radii    : 695700.0, 695700.0, 695700.0 km {Equator_a, b, pole_c}
Output units    : AU-D
Calendar mode   : Mixed Julian/Gregorian
Output type     : GEOMETRIC cartesian states
Output format   : 3 (position, velocity, LT, range, range-rate)
Reference frame : Ecliptic of J2000.0
*******************************************************************************
            JDTDB,            Calendar Date (TDB),                      X,                      Y,                      Z,                     VX,                     VY,                     VZ,                     LT,                     RG,                     RR,
**************************************************************************************************************************************************************************************************************************************************************************
$$SOE
2460756.372222222, A.D. 2025-Mar-21 20:56:00.0000, -7.188884212969997E-01, -5.076544162624086E-03,  4.140968804185899E-02,  2.435472042198002E-05, -2.031496148784899E-02, -2.804532915024292E-04,  4.158939064026682E-03,  7.200979765554488E-01,  1.027748886094238E-04,
2460756.413888889, A.D. 2025-Mar-21 21:56:00.0000, -7.188869119912278E-01, -5.922997206011880E-03,  4.139797400286837E-02,  4.809187769705056E-05, -2.031477993699632E-02, -2.818205115109351E-04,  4.158963809245231E-03,  7.201022610572251E-01,  1.028811727938607E-04,
2460756.455555555, A.D. 2025-Mar-21 22:56:00.0000, -7.188844136473325E-01, -6.769442102568531E-03,  4.138620300495754E-02,  7.182854483223940E-05, -2.031457044016660E-02, -2.831873193569412E-04,  4.158988580023480E-03,  7.201065499845259E-01,  1.029873137699551E-04,
2460756.497222222, A.D. 2025-Mar-21 23:56:00.0000, -7.188809262864255E-01, -7.615877687905094E-03,  4.137437506533938E-02,  9.556468874792250E-05, -2.031433299865062E-02, -2.845537131488212E-04,  4.159013376326948E-03,  7.201108433313816E-01,  1.030933113910901E-04,
2460756.538888889, A.D. 2025-Mar-22 00:56:00.0000, -7.188764499309964E-01, -8.462302797687239E-03,  4.136249020130550E-02,  1.193002763675757E-04, -2.031406761377910E-02, -2.859196909956890E-04,  4.159038198121119E-03,  7.201151410918154E-01,  1.031991655108614E-04,
2460756.580555555, A.D. 2025-Mar-22 01:56:00.0000, -7.188709846049138E-01, -9.308716267636888E-03,  4.135054843022634E-02,  1.430352746178210E-04, -2.031377428692268E-02, -2.872852510073790E-04,  4.159063045371442E-03,  7.201194432598457E-01,  1.033048759830807E-04,
2460756.622222222, A.D. 2025-Mar-22 02:56:00.0000, -7.188645303334233E-01, -1.015511693353392E-02,  4.133854976955106E-02,  1.667696504284779E-04, -2.031345301949192E-02, -2.886503912944725E-04,  4.159087918043332E-03,  7.201237498294837E-01,  1.034104426617749E-04,
2460756.663888889, A.D. 2025-Mar-22 03:56:00.0000, -7.188570871431490E-01, -1.100150363121780E-02,  4.132649423680754E-02,  1.905033707326137E-04, -2.031310381293732E-02, -2.900151099682645E-04,  4.159112816102165E-03,  7.201280607947349E-01,  1.035158654011866E-04,
2460756.705555555, A.D. 2025-Mar-22 04:56:00.0000, -7.188486550620925E-01, -1.184787519658932E-02,  4.131438184960234E-02,  2.142364024665911E-04, -2.031272666874925E-02, -2.913794051408075E-04,  4.159137739513292E-03,  7.201323761495992E-01,  1.036211440557749E-04,
2460756.747222222, A.D. 2025-Mar-22 05:56:00.0000, -7.188392341196328E-01, -1.269423046561213E-02,  4.130221262562064E-02,  2.379687125701184E-04, -2.031232158845800E-02, -2.927432749248937E-04,  4.159162688242015E-03,  7.201366958880697E-01,  1.037262784802138E-04,
2460756.788888889, A.D. 2025-Mar-22 06:56:00.0000, -7.188288243465267E-01, -1.354056827431452E-02,  4.128998658262630E-02,  2.617002679863003E-04, -2.031188857363373E-02, -2.941067174340526E-04,  4.159187662253612E-03,  7.201410200041340E-01,  1.038312685293939E-04,
2460756.830555555, A.D. 2025-Mar-22 07:56:00.0000, -7.188174257749081E-01, -1.438688745879100E-02,  4.127770373846171E-02,  2.854310356616839E-04, -2.031142762588651E-02, -2.954697307825578E-04,  4.159212661513320E-03,  7.201453484917734E-01,  1.039361140584242E-04,
2460756.872222222, A.D. 2025-Mar-22 08:56:00.0000, -7.188050384382881E-01, -1.523318685520402E-02,  4.126536411104782E-02,  3.091609825463102E-04, -2.031093874686628E-02, -2.968323130854451E-04,  4.159237685986344E-03,  7.201496813449630E-01,  1.040408149226304E-04,
2460756.913888889, A.D. 2025-Mar-22 09:56:00.0000, -7.187916623715548E-01, -1.607946529978560E-02,  4.125296771838417E-02,  3.328900755937656E-04, -2.031042193826281E-02, -2.981944624584911E-04,  4.159262735637855E-03,  7.201540185576722E-01,  1.041453709775536E-04,
2460756.955555555, A.D. 2025-Mar-22 10:56:00.0000, -7.187772976109731E-01, -1.692572162883904E-02,  4.124051457854870E-02,  3.566182817612273E-04, -2.030987720180578E-02, -2.995561770182314E-04,  4.159287810432984E-03,  7.201583601238646E-01,  1.042497820789554E-04,
2460756.997222222, A.D. 2025-Mar-22 11:56:00.0000, -7.187619441941846E-01, -1.777195467874046E-02,  4.122800470969786E-02,  3.803455680095133E-04, -2.030930453926468E-02, -3.009174548819620E-04,  4.159312910336835E-03,  7.201627060374969E-01,  1.043540480828144E-04,
2460757.038888889, A.D. 2025-Mar-22 12:56:00.0000, -7.187456021602078E-01, -1.861816328594060E-02,  4.121543813006656E-02,  4.040719013031344E-04, -2.030870395244886E-02, -3.022782941677398E-04,  4.159338035314473E-03,  7.201670562925209E-01,  1.044581688453269E-04,
2460757.080555555, A.D. 2025-Mar-22 13:56:00.0000, -7.187282715494369E-01, -1.946434628696639E-02,  4.120281485796805E-02,  4.277972486103415E-04, -2.030807544320749E-02, -3.036386929943774E-04,  4.159363185330926E-03,  7.201714108828814E-01,  1.045621442229078E-04,
2460757.122222222, A.D. 2025-Mar-22 14:56:00.0000, -7.187099524036432E-01, -2.031050251842264E-02,  4.119013491179396E-02,  4.515215769031730E-04, -2.030741901342958E-02, -3.049986494814624E-04,  4.159388360351193E-03,  7.201757698025182E-01,  1.046659740721922E-04,
